TIANMU-1 08             
1 57400U 23101B   26066.00237819  .00000346  00000+0  14775-4 0  9993
2 57400  97.2717 118.7901 0006380 134.2174 225.9592 15.29204229146020
STARLINK-35968          
1 66636U 25271V   26068.49130907  .00035722  00000+0  12129-2 0  9994
2 66636  53.1577 141.0485 0001082  82.9488 277.1636 15.30186599 17535
