[{"OBJECT_NAME":"TIANMU-1 08","OBJECT_ID":"2023-101B","EPOCH":"2026-03-07T00:03:25.475616","MEAN_MOTION":15.29204229,"ECCENTRICITY":0.00063808,"INCLINATION":97.2717,"RA_OF_ASC_NODE":118.7901,"ARG_OF_PERICENTER":134.2174,"MEAN_ANOMALY":225.9592,"EPHEMERIS_TYPE":0,"CLASSIFICATION_TYPE":"U","NORAD_CAT_ID":57400,"ELEMENT_SET_NO":999,"REV_AT_EPOCH":14602,"BSTAR":1.4774513e-5,"MEAN_MOTION_DOT":3.46e-6,"MEAN_MOTION_DDOT":0},{"OBJECT_NAME":"STARLINK-35968","OBJECT_ID":"2025-271V","EPOCH":"2026-03-09T11:47:29.103648","MEAN_MOTION":15.30186599,"ECCENTRICITY":0.00010821,"INCLINATION":53.1577,"RA_OF_ASC_NODE":141.0485,"ARG_OF_PERICENTER":82.9488,"MEAN_ANOMALY":277.1636,"EPHEMERIS_TYPE":0,"CLASSIFICATION_TYPE":"U","NORAD_CAT_ID":66636,"ELEMENT_SET_NO":999,"REV_AT_EPOCH":1753,"BSTAR":0.0012129133,"MEAN_MOTION_DOT":0.00035722,"MEAN_MOTION_DDOT":0}]
